GLOBALSTAR M069         
1 31573U 07020C   26162.47656831 -.00000097  00000+0 -40781-4 0  9996
2 31573  52.0038 268.2901 0002461 136.3312 303.4603 12.23470979878106
GLOBALSTAR M072         
1 31574U 07020D   26162.62596762 -.00000087  00000+0 -42895-4 0  9997
2 31574  51.9918 115.0504 0001405 316.4945 219.8630 11.91658510874312
GLOBALSTAR M066         
1 32265U 07048C   26162.49666852 -.00000142  00000+0 -40481-3 0  9998
2 32265  51.9597  74.2475 0005392  31.8731 144.5385 12.30388199859520
GLOBALSTAR M079         
1 37188U 10054A   26162.18803622 -.00000094  00000+0  55533-4 0  9992
2 37188  52.0024 126.9316 0000568   8.8433   9.5571 12.62266060721799
GLOBALSTAR M074         
1 37189U 10054B   26162.64497105 -.00000107  00000+0 -20651-4 0  9998
2 37189  51.9999 124.8064 0000422  46.1474 129.8319 12.62268430722458
GLOBALSTAR M076         
1 37190U 10054C   26162.67144747 -.00000115  00000+0 -63200-4 0  9990
2 37190  52.0019 124.9283 0000610  35.0599 141.4966 12.62261782722173
GLOBALSTAR M077         
1 37191U 10054D   26162.37616590 -.00000055  00000+0  42640-3 0  9994
2 37191  51.9927 194.0459 0002827 162.1399 215.8316 11.67547651720466
GLOBALSTAR M075         
1 37192U 10054E   26162.35268154 -.00000083  00000+0  11460-3 0  9999
2 37192  51.9918 167.9577 0000029  53.3799  53.7309 12.62267381721203
GLOBALSTAR M073         
1 37193U 10054F   26162.52674941 -.00000117  00000+0 -73029-4 0  9993
2 37193  52.0063  81.5224 0000817  37.0041 140.0917 12.62262114723218
GLOBALSTAR M083         
1 37739U 11033A   26162.38246340 -.00000099  00000+0  26889-4 0  9999
2 37739  51.9873  30.1984 0000870  58.4936 124.0561 12.62262975692210
GLOBALSTAR M088         
1 37740U 11033B   26162.63696934 -.00000103  00000+0  48823-5 0  9996
2 37740  52.0226 295.8394 0000799 117.9934 259.9035 12.62268609687791
GLOBALSTAR M091         
1 37741U 11033C   26162.58973082 -.00000097  00000+0  36724-4 0  9991
2 37741  52.0001 258.9570 0000425 142.2500 321.9296 12.62263782688578
GLOBALSTAR M085         
1 37742U 11033D   26162.39940159 -.00000080  00000+0  13050-3 0  9998
2 37742  52.0106 210.8231 0000143 206.4221 172.5457 12.62263993689064
GLOBALSTAR M081         
1 37743U 11033E   26162.44431259 -.00000077  00000+0  14888-3 0  9997
2 37743  51.9937 213.1292 0000197 127.6445 335.1075 12.62264894689210
GLOBALSTAR M089         
1 37744U 11033F   26162.30700233 -.00000071  00000+0  18299-3 0  9998
2 37744  51.9906 167.7065 0000347  96.5648 282.7473 12.62267169690045
GLOBALSTAR M084         
1 38040U 11080A   26162.35494384 -.00000108  00000+0 -23779-4 0  9994
2 38040  52.0025  35.0376 0001055  76.9248 100.2928 12.62267475668028
GLOBALSTAR M080         
1 38041U 11080B   26162.40535630 -.00000101  00000+0  17674-4 0  9990
2 38041  52.0078  36.6003 0000325  68.3627 108.0599 12.62269313668153
GLOBALSTAR M082         
1 38042U 11080C   26162.71981228 -.00000091  00000+0  69107-4 0  9999
2 38042  52.0098 351.1434 0000534  90.1443   6.0682 12.62269967668908
GLOBALSTAR M092         
1 38043U 11080D   26162.55282912 -.00000111  00000+0 -40952-4 0  9997
2 38043  52.0089  82.0478 0000602  55.2301 120.7651 12.62266922667332
GLOBALSTAR M090         
1 38044U 11080E   26162.66294301 -.00000096  00000+0  43580-4 0  9996
2 38044  52.0143 345.2705 0000809  84.1871 352.3927 12.62269011669011
GLOBALSTAR M086         
1 38045U 11080F   26162.68551678 -.00000085  00000+0  10661-3 0  9993
2 38045  51.9914 345.1407 0001652  58.1758  21.6449 12.62286661668964
GLOBALSTAR M097         
1 39072U 13005A   26162.54072705 -.00000099  00000+0  26173-4 0  9998
2 39072  52.0050 260.5247 0000401 125.4277 234.6627 12.62247179616198
GLOBALSTAR M093         
1 39073U 13005B   26162.51402443 -.00000093  00000+0  58383-4 0  9994
2 39073  52.0105 253.9508 0000270 105.8627 254.2270 12.62265790616147
GLOBALSTAR M094         
1 39074U 13005C   26162.27638472 -.00000083  00000+0  11761-3 0  9998
2 39074  51.9930 168.7959 0000255 344.7640  15.3219 12.62268589617720
GLOBALSTAR M096         
1 39075U 13005D   26162.44821407 -.00000079  00000+0  13649-3 0  9992
2 39075  52.0056 217.0709 0000125 175.8120 184.2747 12.62265487616663
GLOBALSTAR M078         
1 39076U 13005E   26162.65875461 -.00000183  00000+0 -44280-3 0  9997
2 39076  51.9889 300.4455 0000549 206.7112 153.3726 12.62258445615317
GLOBALSTAR M095         
1 39077U 13005F   26162.68552134 -.00000104  00000+0 -79060-6 0  9990
2 39077  52.0095 297.9607 0000334 125.3628 234.7270 12.62263363615175
GLOBALSTAR M087         
1 52888U 22064A   26162.46123512 -.00000111  00000+0 -42513-4 0  9999
2 52888  52.0000  79.8844 0000651  25.9213 334.1686 12.62268957190418
